{
  "type": "FeatureCollection",
  "features": [
    {
      "type": "Feature",
      "properties": {
        "norad_id": 40118,
        "name": "GAOFEN-2",
        "group": "resource",
        "lat": 33.42518324885415,
        "lon": -114.7681318694571,
        "alt_km": 623.3667758908668,
        "timestamp": "2025-12-26T16:33:55.241035+00:00",
        "meta_object_name": "GAOFEN-2",
        "meta_object_id": "2014-049A",
        "meta_epoch": "2025-12-26T06:10:37.263072",
        "meta_mean_motion": 14.80630574,
        "meta_eccentricity": 0.00087058,
        "meta_inclination": 98.0362,
        "meta_ra_of_asc_node": 59.448,
        "meta_arg_of_pericenter": 75.7085,
        "meta_mean_anomaly": 284.5093,
        "meta_ephemeris_type": 0,
        "meta_classification_type": "U",
        "meta_norad_cat_id": 40118,
        "meta_element_set_no": 999,
        "meta_rev_at_epoch": 61364,
        "meta_bstar": 0.00011577495,
        "meta_mean_motion_dot": 8.36e-06,
        "meta_mean_motion_ddot": 0,
        "tle_line1": "1 40118U 14049A   25360.25737573  .00000836  00000+0  11577-3 0  9997",
        "tle_line2": "2 40118  98.0362  59.4480 0008705  75.7085 284.5093 14.80630574613645"
      },
      "geometry": {
        "type": "Point",
        "coordinates": [
          -114.7681318694571,
          33.42518324885415
        ]
      }
    },
    {
      "type": "Feature",
      "properties": {
        "norad_id": 40143,
        "name": "YAOGAN-21",
        "group": "resource",
        "lat": 67.62896843927533,
        "lon": -118.78476994713107,
        "alt_km": 490.3276922616715,
        "timestamp": "2025-12-26T16:33:55.241045+00:00",
        "meta_object_name": "YAOGAN-21",
        "meta_object_id": "2014-053A",
        "meta_epoch": "2025-12-26T06:37:24.022272",
        "meta_mean_motion": 15.23810869,
        "meta_eccentricity": 0.00084031,
        "meta_inclination": 97.1735,
        "meta_ra_of_asc_node": 43,
        "meta_arg_of_pericenter": 356.5749,
        "meta_mean_anomaly": 3.543,
        "meta_ephemeris_type": 0,
        "meta_classification_type": "U",
        "meta_norad_cat_id": 40143,
        "meta_element_set_no": 999,
        "meta_rev_at_epoch": 62860,
        "meta_bstar": 0.0002682491,
        "meta_mean_motion_dot": 6.4e-05,
        "meta_mean_motion_ddot": 0,
        "tle_line1": "1 40143U 14053A   25360.27597248  .00006400  00000+0  26825-3 0  9990",
        "tle_line2": "2 40143  97.1735  43.0000 0008403 356.5749   3.5430 15.23810869628607"
      },
      "geometry": {
        "type": "Point",
        "coordinates": [
          -118.78476994713107,
          67.62896843927533
        ]
      }
    },
    {
      "type": "Feature",
      "properties": {
        "norad_id": 40275,
        "name": "YAOGAN-22",
        "group": "resource",
        "lat": -51.962707299386906,
        "lon": 158.35030676734388,
        "alt_km": 1208.810271324077,
        "timestamp": "2025-12-26T16:33:55.241054+00:00",
        "meta_object_name": "YAOGAN-22",
        "meta_object_id": "2014-063A",
        "meta_epoch": "2025-12-26T05:53:04.068672",
        "meta_mean_motion": 13.15523273,
        "meta_eccentricity": 0.00061072,
        "meta_inclination": 100.743,
        "meta_ra_of_asc_node": 143.8558,
        "meta_arg_of_pericenter": 215.9318,
        "meta_mean_anomaly": 144.1383,
        "meta_ephemeris_type": 0,
        "meta_classification_type": "U",
        "meta_norad_cat_id": 40275,
        "meta_element_set_no": 999,
        "meta_rev_at_epoch": 53707,
        "meta_bstar": 4.6164242e-05,
        "meta_mean_motion_dot": -2.9e-07,
        "meta_mean_motion_ddot": 0,
        "tle_line1": "1 40275U 14063A   25360.24518598 -.00000029  00000+0  46164-4 0  9996",
        "tle_line2": "2 40275 100.7430 143.8558 0006107 215.9318 144.1383 13.15523273537070"
      },
      "geometry": {
        "type": "Point",
        "coordinates": [
          158.35030676734388,
          -51.962707299386906
        ]
      }
    },
    {
      "type": "Feature",
      "properties": {
        "norad_id": 40298,
        "name": "ASNARO",
        "group": "resource",
        "lat": -46.52203388811763,
        "lon": 84.13385861764112,
        "alt_km": 515.8984105009586,
        "timestamp": "2025-12-26T16:33:55.241064+00:00",
        "meta_object_name": "ASNARO",
        "meta_object_id": "2014-070A",
        "meta_epoch": "2025-12-26T07:17:27.208896",
        "meta_mean_motion": 15.19778239,
        "meta_eccentricity": 0.00056915,
        "meta_inclination": 97.3629,
        "meta_ra_of_asc_node": 75.9191,
        "meta_arg_of_pericenter": 85.7332,
        "meta_mean_anomaly": 274.4553,
        "meta_ephemeris_type": 0,
        "meta_classification_type": "U",
        "meta_norad_cat_id": 40298,
        "meta_element_set_no": 999,
        "meta_rev_at_epoch": 61775,
        "meta_bstar": 0.00077526041,
        "meta_mean_motion_dot": 0.00016555,
        "meta_mean_motion_ddot": 0,
        "tle_line1": "1 40298U 14070A   25360.30378714  .00016555  00000+0  77526-3 0  9995",
        "tle_line2": "2 40298  97.3629  75.9191 0005691  85.7332 274.4553 15.19778239617750"
      },
      "geometry": {
        "type": "Point",
        "coordinates": [
          84.13385861764112,
          -46.52203388811763
        ]
      }
    },
    {
      "type": "Feature",
      "properties": {
        "norad_id": 40310,
        "name": "YAOGAN-24",
        "group": "resource",
        "lat": -81.55751866382006,
        "lon": -122.36229321956714,
        "alt_km": 659.2361056807249,
        "timestamp": "2025-12-26T16:33:55.241074+00:00",
        "meta_object_name": "YAOGAN-24",
        "meta_object_id": "2014-072A",
        "meta_epoch": "2025-12-26T07:13:23.552256",
        "meta_mean_motion": 14.7620362,
        "meta_eccentricity": 0.00152093,
        "meta_inclination": 98.1233,
        "meta_ra_of_asc_node": 131.4673,
        "meta_arg_of_pericenter": 97.6101,
        "meta_mean_anomaly": 262.6836,
        "meta_ephemeris_type": 0,
        "meta_classification_type": "U",
        "meta_norad_cat_id": 40310,
        "meta_element_set_no": 999,
        "meta_rev_at_epoch": 59821,
        "meta_bstar": 0.00011483533,
        "meta_mean_motion_dot": 7.43e-06,
        "meta_mean_motion_ddot": 0,
        "tle_line1": "1 40310U 14072A   25360.30096704  .00000743  00000+0  11484-3 0  9991",
        "tle_line2": "2 40310  98.1233 131.4673 0015209  97.6101 262.6836 14.76203620598211"
      },
      "geometry": {
        "type": "Point",
        "coordinates": [
          -122.36229321956714,
          -81.55751866382006
        ]
      }
    },
    {
      "type": "Feature",
      "properties": {
        "norad_id": 40336,
        "name": "CBERS 4",
        "group": "resource",
        "lat": 50.484283816064455,
        "lon": -111.54161107716695,
        "alt_km": 767.5252446255736,
        "timestamp": "2025-12-26T16:33:55.241083+00:00",
        "meta_object_name": "CBERS 4",
        "meta_object_id": "2014-079A",
        "meta_epoch": "2025-12-26T07:36:13.879584",
        "meta_mean_motion": 14.35522988,
        "meta_eccentricity": 0.00018945,
        "meta_inclination": 98.3285,
        "meta_ra_of_asc_node": 57.8677,
        "meta_arg_of_pericenter": 97.901,
        "meta_mean_anomaly": 262.2392,
        "meta_ephemeris_type": 0,
        "meta_classification_type": "U",
        "meta_norad_cat_id": 40336,
        "meta_element_set_no": 999,
        "meta_rev_at_epoch": 57915,
        "meta_bstar": 7.1700222e-05,
        "meta_mean_motion_dot": 1.64e-06,
        "meta_mean_motion_ddot": 0,
        "tle_line1": "1 40336U 14079A   25360.31682731  .00000164  00000+0  71700-4 0  9993",
        "tle_line2": "2 40336  98.3285  57.8677 0001894  97.9010 262.2392 14.35522988579151"
      },
      "geometry": {
        "type": "Point",
        "coordinates": [
          -111.54161107716695,
          50.484283816064455
        ]
      }
    },
    {
      "type": "Feature",
      "properties": {
        "norad_id": 40362,
        "name": "YAOGAN-26",
        "group": "resource",
        "lat": -75.9281604357443,
        "lon": 151.21447573858444,
        "alt_km": 453.8926542490708,
        "timestamp": "2025-12-26T16:33:55.241093+00:00",
        "meta_object_name": "YAOGAN-26",
        "meta_object_id": "2014-088A",
        "meta_epoch": "2025-12-26T06:05:27.030912",
        "meta_mean_motion": 15.39786114,
        "meta_eccentricity": 0.00042628,
        "meta_inclination": 97.065,
        "meta_ra_of_asc_node": 0.4491,
        "meta_arg_of_pericenter": 346.8747,
        "meta_mean_anomaly": 13.2388,
        "meta_ephemeris_type": 0,
        "meta_classification_type": "U",
        "meta_norad_cat_id": 40362,
        "meta_element_set_no": 999,
        "meta_rev_at_epoch": 61102,
        "meta_bstar": 0.00071679752,
        "meta_mean_motion_dot": 0.00028395,
        "meta_mean_motion_ddot": 0,
        "tle_line1": "1 40362U 14088A   25360.25378508  .00028395  00000+0  71680-3 0  9991",
        "tle_line2": "2 40362  97.0650   0.4491 0004262 346.8747  13.2388 15.39786114611025"
      },
      "geometry": {
        "type": "Point",
        "coordinates": [
          151.21447573858444,
          -75.9281604357443
        ]
      }
    }
  ]
}